[{"OBJECT_NAME":"ONEWEB-0042","OBJECT_ID":"2020-020T","EPOCH":"2026-03-09T22:29:18.366432","MEAN_MOTION":13.11414995,"ECCENTRICITY":0.00017227,"INCLINATION":87.8867,"RA_OF_ASC_NODE":40.7856,"ARG_OF_PERICENTER":82.5034,"MEAN_ANOMALY":277.6289,"EPHEMERIS_TYPE":0,"CLASSIFICATION_TYPE":"U","NORAD_CAT_ID":45441,"ELEMENT_SET_NO":999,"REV_AT_EPOCH":28965,"BSTAR":-0.0012164144,"MEAN_MOTION_DOT":-4.18e-6,"MEAN_MOTION_DDOT":0},{"OBJECT_NAME":"DELTA 1 DEB","OBJECT_ID":"1973-086EJ","EPOCH":"2026-03-09T17:00:37.856736","MEAN_MOTION":13.06963556,"ECCENTRICITY":0.00866905,"INCLINATION":101.6482,"RA_OF_ASC_NODE":113.4494,"ARG_OF_PERICENTER":353.8115,"MEAN_ANOMALY":125.442,"EPHEMERIS_TYPE":0,"CLASSIFICATION_TYPE":"U","NORAD_CAT_ID":7170,"ELEMENT_SET_NO":999,"REV_AT_EPOCH":45116,"BSTAR":0.0029776114,"MEAN_MOTION_DOT":9.57e-6,"MEAN_MOTION_DDOT":0}]
